[Satellite]
VERSION=1.1
NAME=FLOCK 3P-24
NICKNAME=FLOCK 3P-24
TLE1=1 41956U 17008J   17186.25945864  .00002814  00000-0  12459-3 0  9996
TLE2=2 41956  97.4942 247.4817 0010974 121.8640 238.3665 15.22446014 21283
